NORAD_CAT_ID,OBJECT_NAME,OBJECT_TYPE,EPOCH,MEAN_MOTION,ECCENTRICITY,INCLINATION,RA_OF_ASC_NODE,ARG_OF_PERICENTER,MEAN_ANOMALY,BSTAR,MEAN_MOTION_DOT,MEAN_MOTION_DDOT,TLE_LINE0,TLE_LINE1,TLE_LINE2,SEMIMAJOR_AXIS,PERIOD,APOGEE,PERIGEE,DECAYED
49440.0,STARLINK-3105,PAYLOAD,2023-01-23 10:30:27,15.08839326,0.0002248,53.2149,292.4058,89.5045,270.6205,0.0013677,0.00021546,0.0,0 STARLINK-3105,1 49440U 21104AJ  23023.43782098  .00021546  00000-0  13677-2 0  9994,2 49440  53.2149 292.4058 0002248  89.5045 270.6205 15.08839326 67699,6917.882,95.438,541.303,538.192,0.0
49440.0,STARLINK-3105,PAYLOAD,2023-01-24 03:59:41,15.08847367,0.000121,53.2149,289.135,105.6985,254.4141,0.00090075,0.00014079,0.0,0 STARLINK-3105,1 49440U 21104AJ  23024.16645686  .00014079  00000-0  90075-3 0  9997,2 49440  53.2149 289.1350 0001210 105.6985 254.4141 15.08847367 67804,6917.858,95.437,540.56,538.886,0.0
49440.0,STARLINK-3105,PAYLOAD,2023-01-25 03:50:28,15.08846956,0.0001095999999999,53.214,284.6741,101.8627,258.2488,0.00041557,6.333e-05,0.0,0 STARLINK-3105,1 49440U 21104AJ  23025.16005752  .00006333  00000-0  41557-3 0  9997,2 49440  53.2140 284.6741 0001096 101.8627 258.2488 15.08846956 67957,6917.859,95.437,540.482,538.966,0.0
49440.0,STARLINK-3105,PAYLOAD,2023-01-25 10:12:01,15.088406400000002,0.0001424,53.215,283.4842,84.6056,275.5099,0.00017854,2.555e-05,0.0,0 STARLINK-3105,1 49440U 21104AJ  23025.42502034  .00002555  00000-0  17854-3 0  9996,2 49440  53.2150 283.4842 0001424  84.6056 275.5099 15.08840640 66926,6917.878000000001,95.438,540.729,538.758,0.0
49440.0,STARLINK-3105,PAYLOAD,2023-01-26 02:05:52,15.08848399,0.0001264999999999,53.2145,280.5101,90.3536,269.7601,0.00026411,3.919e-05,0.0,0 STARLINK-3105,1 49440U 21104AJ  23026.08741677  .00003919  00000-0  26411-3 0  9991,2 49440  53.2145 280.5101 0001265  90.3536 269.7601 15.08848399 67021,6917.855,95.437,540.595,538.845,0.0
49440.0,STARLINK-3105,PAYLOAD,2023-01-26 22:45:53,15.08845738,0.0001391,53.214,276.6439,84.7951,275.32,0.00019877,2.877e-05,0.0,0 STARLINK-3105,1 49440U 21104AJ  23026.94853936  .00002877  00000-0  19877-3 0  9998,2 49440  53.2140 276.6439 0001391  84.7951 275.3200 15.08845738 68229,6917.863,95.437,540.69,538.766,0.0
49440.0,STARLINK-3105,PAYLOAD,2023-01-27 01:56:40,15.08849235,0.0001608,53.2153,276.0487,65.6147,294.5013,0.00028706,4.285e-05,0.0,0 STARLINK-3105,1 49440U 21104AJ  23027.08101924  .00004285  00000-0  28706-3 0  9993,2 49440  53.2153 276.0487 0001608  65.6147 294.5013 15.08849235 67170,6917.852,95.437,540.83,538.605,0.0
49440.0,STARLINK-3105,PAYLOAD,2023-01-27 21:01:18,15.08840804,0.0001465999999999,53.2141,272.4804,69.5367,290.5782,0.00015055,2.109e-05,0.0,0 STARLINK-3105,1 49440U 21104AJ  23027.87590327  .00002109  00000-0  15055-3 0  9995,2 49440  53.2141 272.4804 0001466  69.5367 290.5782 15.08840804 67294,6917.878000000001,95.438,540.757,538.729,0.0
49440.0,STARLINK-3105,PAYLOAD,2023-01-28 01:47:27,15.08842645,0.0001122,53.2134,271.5879,85.8187,274.2933,0.00012775,1.746e-05,0.0,0 STARLINK-3105,1 49440U 21104AJ  23028.07462010  .00001746  00000-0  12775-3 0  9997,2 49440  53.2134 271.5879 0001122  85.8187 274.2933 15.08842645 68392,6917.871999999999,95.437,540.513,538.961,0.0
49440.0,STARLINK-3105,PAYLOAD,2023-01-28 22:27:27,15.08847015,0.0001193,53.2127,267.7232,82.4426,277.6701,0.00016166,2.286e-05,0.0,0 STARLINK-3105,1 49440U 21104AJ  23028.93573759  .00002286  00000-0  16166-3 0  9993,2 49440  53.2127 267.7232 0001193  82.4426 277.6701 15.08847015 67453,6917.859,95.437,540.549,538.899,0.0
49440.0,STARLINK-3105,PAYLOAD,2023-01-29 22:18:15,15.0883855,0.0001206,53.2132,263.2632,78.8291,281.2837,5.2133e-05,5.42e-06,0.0,0 STARLINK-3105,1 49440U 21104AJ  23029.92934390  .00000542  00000-0  52133-4 0  9993,2 49440  53.2132 263.2632 0001206  78.8291 281.2837 15.08838550 68678,6917.885,95.438,540.584,538.916,0.0
49440.0,STARLINK-3105,PAYLOAD,2023-01-30 01:29:01,15.08839944,0.0001208,53.2138,262.6678,79.1562,280.9566,5.57e-05,5.99e-06,0.0,0 STARLINK-3105,1 49440U 21104AJ  23030.06182285  .00000599  00000-0  55700-4 0  9993,2 49440  53.2138 262.6678 0001208  79.1562 280.9566 15.08839944 67621,6917.881,95.438,540.581,538.91,0.0
49440.0,STARLINK-3105,PAYLOAD,2023-01-30 22:09:02,15.08843343,0.0001171,53.2135,258.8022,80.8742,279.2382,8.3499e-05,1.041e-05,0.0,0 STARLINK-3105,1 49440U 21104AJ  23030.92294114  .00001041  00000-0  83499-4 0  9992,2 49440  53.2135 258.8022 0001171  80.8742 279.2382 15.08843343 67755,6917.87,95.437,540.545,538.925,0.0
49440.0,STARLINK-3105,PAYLOAD,2023-01-30 23:44:25,15.08844587,0.0001177,53.2135,258.5048,79.4928,280.6196,9.233e-05,1.182e-05,0.0,0 STARLINK-3105,1 49440U 21104AJ  23030.98918049  .00001182  00000-0  92330-4 0  9998,2 49440  53.2135 258.5048 0001177  79.4928 280.6196 15.08844587 68836,6917.866,95.437,540.546,538.917,0.0
49440.0,STARLINK-3105,PAYLOAD,2023-01-31 01:19:48,15.08845771,0.0001187,53.2134,258.2071,80.2112,279.9014,0.0001177,1.586e-05,0.0,0 STARLINK-3105,1 49440U 21104AJ  23031.05541982  .00001586  00000-0  11770-3 0  9991,2 49440  53.2134 258.2071 0001187  80.2112 279.9014 15.08845771 67772,6917.863,95.437,540.549,538.907,0.0
49440.0,STARLINK-3105,PAYLOAD,2023-01-31 15:38:16,15.08837602,0.000121,53.2136,255.5306,81.9071,278.2058,8.0356e-05,9.91e-06,0.0,0 STARLINK-3105,1 49440U 21104AJ  23031.65158418  .00000991  00000-0  80356-4 0  9991,2 49440  53.2136 255.5306 0001210  81.9071 278.2058 15.08837602 68937,6917.888,95.438,540.59,538.916,0.0
49440.0,STARLINK-3105,PAYLOAD,2023-01-31 21:59:49,15.08844671,0.0001221,53.2134,254.3408,84.1063,276.0069,0.00013057,1.791e-05,0.0,0 STARLINK-3105,1 49440U 21104AJ  23031.91654018  .00001791  00000-0  13057-3 0  9999,2 49440  53.2134 254.3408 0001221  84.1063 276.0069 15.08844671 67901,6917.866,95.437,540.576,538.886,0.0
49440.0,STARLINK-3105,PAYLOAD,2023-02-01 01:10:35,15.08846214,0.0001213,53.2134,253.746,81.869,278.2439,0.00014606,2.038e-05,0.0,0 STARLINK-3105,1 49440U 21104AJ  23032.04901924  .00002038  00000-0  14606-3 0  9991,2 49440  53.2134 253.7460 0001213  81.8690 278.2439 15.08846214 68993,6917.861,95.437,540.566,538.887,0.0
49440.0,STARLINK-3105,PAYLOAD,2023-02-01 13:53:40,15.08838764,0.00013,53.2099,251.3666,85.4571,274.6569,1.7199e-05,-1.4e-07,0.0,0 STARLINK-3105,1 49440U 21104AJ  23032.57894281 -.00000014  00000-0  17199-4 0  9990,2 49440  53.2099 251.3666 0001300  85.4571 274.6569 15.08838764 68007,6917.884,95.438,540.648,538.85,0.0
49440.0,STARLINK-3105,PAYLOAD,2023-02-02 13:44:27,15.08842394,0.0001686,53.2102,246.9059,84.7739,275.3445,-5.218e-05,-1.119e-05,0.0,0 STARLINK-3105,1 49440U 21104AJ  23033.57254126 -.00001119  00000-0 -52180-4 0  9996,2 49440  53.2102 246.9059 0001686  84.7739 275.3445 15.08842394 68154,6917.873,95.437,540.904,538.572,0.0
49440.0,STARLINK-3105,PAYLOAD,2023-02-02 23:16:46,15.08843183,0.0001428,53.2123,245.121,88.0403,272.0753,3.8642e-05,3.27e-06,0.0,0 STARLINK-3105,1 49440U 21104AJ  23033.96998402  .00000327  00000-0  38642-4 0  9996,2 49440  53.2123 245.1210 0001428  88.0403 272.0753 15.08843183 69284,6917.871,95.437,540.724,538.748,0.0
49440.0,STARLINK-3105,PAYLOAD,2023-02-03 13:35:14,15.08840842,0.0001476,53.2113,242.4437,92.4486,267.6675,9.2329e-05,1.182e-05,0.0,0 STARLINK-3105,1 49440U 21104AJ  23034.56614480  .00001182  00000-0  92329-4 0  9996,2 49440  53.2113 242.4437 0001476  92.4486 267.6675 15.08840842 68301,6917.878,95.438,540.764,538.722,0.0
49440.0,STARLINK-3105,PAYLOAD,2023-02-03 16:46:01,15.08840237,0.0001506,53.2132,241.8502,84.4273,275.6891,7.2684e-05,8.69e-06,0.0,0 STARLINK-3105,1 49440U 21104AJ  23034.69862633  .00000869  00000-0  72684-4 0  9998,2 49440  53.2132 241.8502 0001506  84.4273 275.6891 15.08840237 68326,6917.88,95.438,540.786,538.703,0.0
49440.0,STARLINK-3105,PAYLOAD,2023-02-04 13:26:01,15.08843043,0.0001465,53.2131,237.9838,90.1591,269.9568,9.5361e-05,1.23e-05,0.0,0 STARLINK-3105,1 49440U 21104AJ  23035.55974303  .00001230  00000-0  95361-4 0  9992,2 49440  53.2131 237.9838 0001465  90.1591 269.9568 15.08843043 69522,6917.871,95.437,540.75,538.723,0.0
49440.0,STARLINK-3105,PAYLOAD,2023-02-04 19:47:34,15.08845983,0.0001366,53.213,236.7943,94.7292,265.3856,0.00011004,1.464e-05,0.0,0 STARLINK-3105,1 49440U 21104AJ  23035.82469972  .00001464  00000-0  11004-3 0  9993,2 49440  53.2130 236.7943 0001366  94.7292 265.3856 15.08845983 68493,6917.862,95.437,540.672,538.782,0.0
49440.0,STARLINK-3105,PAYLOAD,2023-02-05 19:38:21,15.08838062,0.0001166,53.2138,232.3339,94.6022,265.5103,7.8773e-06,-1.62e-06,0.0,0 STARLINK-3105,1 49440U 21104AJ  23036.81830725 -.00000162  00000-0  78773-5 0  9994,2 49440  53.2138 232.3339 0001166  94.6022 265.5103 15.08838062 69713,6917.886,95.438,540.558,538.945,0.0
49440.0,STARLINK-3105,PAYLOAD,2023-02-05 22:49:07,15.08859593,0.0001401,53.2143,231.7397,105.2528,254.8619,-0.00029102,-4.919e-05,0.0,0 STARLINK-3105,1 49440U 21104AJ  23036.95077919 -.00004919  00000-0 -29102-3 0  9992,2 49440  53.2143 231.7397 0001401 105.2528 254.8619 15.08859593 69735,6917.821,95.436,540.655,538.716,0.0
49440.0,STARLINK-3105,PAYLOAD,2023-02-06 19:29:08,15.08843775,0.0001038,53.2142,227.8733,89.3829,270.7282,4.4682e-05,4.23e-06,0.0,0 STARLINK-3105,1 49440U 21104AJ  23037.81190322  .00000423  00000-0  44682-4 0  9997,2 49440  53.2142 227.8733 0001038  89.3829 270.7282 15.08843775 69868,6917.869,95.437,540.452,539.016,0.0
49440.0,STARLINK-3105,PAYLOAD,2023-02-07 12:58:23,15.08835918,0.0001008,53.2141,224.6022,88.0574,272.0533,5.599e-05,6.03e-06,0.0,0 STARLINK-3105,1 49440U 21104AJ  23038.54054913  .00000603  00000-0  55990-4 0  9997,2 49440  53.2141 224.6022 0001008  88.0574 272.0533 15.08835918 69979,6917.893,95.438,540.455,539.061,0.0
49440.0,STARLINK-3105,PAYLOAD,2023-02-07 17:44:32,15.08840332,0.0001037,53.2142,223.7103,88.0629,272.0482,9.0495e-05,1.153e-05,0.0,0 STARLINK-3105,1 49440U 21104AJ  23038.73926568  .00001153  00000-0  90495-4 0  9992,2 49440  53.2142 223.7103 0001037  88.0629 272.0482 15.08840332 68937,6917.879,95.438,540.462,539.027,0.0
